<?xml version="1.0" encoding="UTF-8"?>
<ndm xmlns:xsi="http://www.w3.org/2001/XMLSchema-instance" xsi:noNamespaceSchemaLocation="https://sanaregistry.org/r/ndmxml_unqualified/ndmxml-2.0.0-master-2.0.xsd">
<omm id="CCSDS_OMM_VERS" version="2.0">
<header><CREATION_DATE/><ORIGINATOR/></header><body><segment><metadata><OBJECT_NAME>IRIDIUM 26</OBJECT_NAME><OBJECT_ID>1997-043A</OBJECT_ID><CENTER_NAME>EARTH</CENTER_NAME><REF_FRAME>TEME</REF_FRAME><TIME_SYSTEM>UTC</TIME_SYSTEM><MEAN_ELEMENT_THEORY>SGP4</MEAN_ELEMENT_THEORY></metadata><data><meanElements><EPOCH>2025-03-29T09:24:32.830560</EPOCH><MEAN_MOTION>14.37058205</MEAN_MOTION><ECCENTRICITY>.0002282</ECCENTRICITY><INCLINATION>86.3979</INCLINATION><RA_OF_ASC_NODE>144.1433</RA_OF_ASC_NODE><ARG_OF_PERICENTER>88.2420</ARG_OF_PERICENTER><MEAN_ANOMALY>271.9039</MEAN_ANOMALY></meanElements><tleParameters><EPHEMERIS_TYPE>0</EPHEMERIS_TYPE><CLASSIFICATION_TYPE>U</CLASSIFICATION_TYPE><NORAD_CAT_ID>24903</NORAD_CAT_ID><ELEMENT_SET_NO>999</ELEMENT_SET_NO><REV_AT_EPOCH>44528</REV_AT_EPOCH><BSTAR>.29659E-3</BSTAR><MEAN_MOTION_DOT>.899E-5</MEAN_MOTION_DOT><MEAN_MOTION_DDOT>0</MEAN_MOTION_DDOT></tleParameters></data></segment></body></omm>
<omm id="CCSDS_OMM_VERS" version="2.0">
<header><CREATION_DATE/><ORIGINATOR/></header><body><segment><metadata><OBJECT_NAME>IRIDIUM 22</OBJECT_NAME><OBJECT_ID>1997-043E</OBJECT_ID><CENTER_NAME>EARTH</CENTER_NAME><REF_FRAME>TEME</REF_FRAME><TIME_SYSTEM>UTC</TIME_SYSTEM><MEAN_ELEMENT_THEORY>SGP4</MEAN_ELEMENT_THEORY></metadata><data><meanElements><EPOCH>2025-03-29T06:08:59.376192</EPOCH><MEAN_MOTION>14.35881883</MEAN_MOTION><ECCENTRICITY>.0002246</ECCENTRICITY><INCLINATION>86.3990</INCLINATION><RA_OF_ASC_NODE>147.6669</RA_OF_ASC_NODE><ARG_OF_PERICENTER>94.0500</ARG_OF_PERICENTER><MEAN_ANOMALY>266.0954</MEAN_ANOMALY></meanElements><tleParameters><EPHEMERIS_TYPE>0</EPHEMERIS_TYPE><CLASSIFICATION_TYPE>U</CLASSIFICATION_TYPE><NORAD_CAT_ID>24907</NORAD_CAT_ID><ELEMENT_SET_NO>999</ELEMENT_SET_NO><REV_AT_EPOCH>44530</REV_AT_EPOCH><BSTAR>.27535E-3</BSTAR><MEAN_MOTION_DOT>.817E-5</MEAN_MOTION_DOT><MEAN_MOTION_DDOT>0</MEAN_MOTION_DDOT></tleParameters></data></segment></body></omm>
<omm id="CCSDS_OMM_VERS" version="2.0">
<header><CREATION_DATE/><ORIGINATOR/></header><body><segment><metadata><OBJECT_NAME>DUMMY MASS 1</OBJECT_NAME><OBJECT_ID>1997-048A</OBJECT_ID><CENTER_NAME>EARTH</CENTER_NAME><REF_FRAME>TEME</REF_FRAME><TIME_SYSTEM>UTC</TIME_SYSTEM><MEAN_ELEMENT_THEORY>SGP4</MEAN_ELEMENT_THEORY></metadata><data><meanElements><EPOCH>2025-03-29T06:24:50.482080</EPOCH><MEAN_MOTION>14.86896040</MEAN_MOTION><ECCENTRICITY>.0008931</ECCENTRICITY><INCLINATION>86.3410</INCLINATION><RA_OF_ASC_NODE>172.2607</RA_OF_ASC_NODE><ARG_OF_PERICENTER>75.6501</ARG_OF_PERICENTER><MEAN_ANOMALY>284.5715</MEAN_ANOMALY></meanElements><tleParameters><EPHEMERIS_TYPE>0</EPHEMERIS_TYPE><CLASSIFICATION_TYPE>U</CLASSIFICATION_TYPE><NORAD_CAT_ID>24925</NORAD_CAT_ID><ELEMENT_SET_NO>999</ELEMENT_SET_NO><REV_AT_EPOCH>49325</REV_AT_EPOCH><BSTAR>.11539E-3</BSTAR><MEAN_MOTION_DOT>.1059E-4</MEAN_MOTION_DOT><MEAN_MOTION_DDOT>0</MEAN_MOTION_DDOT></tleParameters></data></segment></body></omm>
<omm id="CCSDS_OMM_VERS" version="2.0">
<header><CREATION_DATE/><ORIGINATOR/></header><body><segment><metadata><OBJECT_NAME>DUMMY MASS 2</OBJECT_NAME><OBJECT_ID>1997-048B</OBJECT_ID><CENTER_NAME>EARTH</CENTER_NAME><REF_FRAME>TEME</REF_FRAME><TIME_SYSTEM>UTC</TIME_SYSTEM><MEAN_ELEMENT_THEORY>SGP4</MEAN_ELEMENT_THEORY></metadata><data><meanElements><EPOCH>2025-03-29T06:48:07.549344</EPOCH><MEAN_MOTION>14.86648933</MEAN_MOTION><ECCENTRICITY>.0009822</ECCENTRICITY><INCLINATION>86.3412</INCLINATION><RA_OF_ASC_NODE>173.8437</RA_OF_ASC_NODE><ARG_OF_PERICENTER>83.9203</ARG_OF_PERICENTER><MEAN_ANOMALY>276.3140</MEAN_ANOMALY></meanElements><tleParameters><EPHEMERIS_TYPE>0</EPHEMERIS_TYPE><CLASSIFICATION_TYPE>U</CLASSIFICATION_TYPE><NORAD_CAT_ID>24926</NORAD_CAT_ID><ELEMENT_SET_NO>999</ELEMENT_SET_NO><REV_AT_EPOCH>49303</REV_AT_EPOCH><BSTAR>.11604E-3</BSTAR><MEAN_MOTION_DOT>.1058E-4</MEAN_MOTION_DOT><MEAN_MOTION_DDOT>0</MEAN_MOTION_DDOT></tleParameters></data></segment></body></omm>
<omm id="CCSDS_OMM_VERS" version="2.0">
<header><CREATION_DATE/><ORIGINATOR/></header><body><segment><metadata><OBJECT_NAME>IRIDIUM 29</OBJECT_NAME><OBJECT_ID>1997-051A</OBJECT_ID><CENTER_NAME>EARTH</CENTER_NAME><REF_FRAME>TEME</REF_FRAME><TIME_SYSTEM>UTC</TIME_SYSTEM><MEAN_ELEMENT_THEORY>SGP4</MEAN_ELEMENT_THEORY></metadata><data><meanElements><EPOCH>2025-03-29T07:22:22.410912</EPOCH><MEAN_MOTION>14.36376987</MEAN_MOTION><ECCENTRICITY>.0002242</ECCENTRICITY><INCLINATION>86.4029</INCLINATION><RA_OF_ASC_NODE>177.3751</RA_OF_ASC_NODE><ARG_OF_PERICENTER>100.5336</ARG_OF_PERICENTER><MEAN_ANOMALY>259.6114</MEAN_ANOMALY></meanElements><tleParameters><EPHEMERIS_TYPE>0</EPHEMERIS_TYPE><CLASSIFICATION_TYPE>U</CLASSIFICATION_TYPE><NORAD_CAT_ID>24944</NORAD_CAT_ID><ELEMENT_SET_NO>999</ELEMENT_SET_NO><REV_AT_EPOCH>44180</REV_AT_EPOCH><BSTAR>.32654E-3</BSTAR><MEAN_MOTION_DOT>.975E-5</MEAN_MOTION_DOT><MEAN_MOTION_DDOT>0</MEAN_MOTION_DDOT></tleParameters></data></segment></body></omm>
<omm id="CCSDS_OMM_VERS" version="2.0">
<header><CREATION_DATE/><ORIGINATOR/></header><body><segment><metadata><OBJECT_NAME>IRIDIUM 33</OBJECT_NAME><OBJECT_ID>1997-051C</OBJECT_ID><CENTER_NAME>EARTH</CENTER_NAME><REF_FRAME>TEME</REF_FRAME><TIME_SYSTEM>UTC</TIME_SYSTEM><MEAN_ELEMENT_THEORY>SGP4</MEAN_ELEMENT_THEORY></metadata><data><meanElements><EPOCH>2025-03-29T08:11:46.491648</EPOCH><MEAN_MOTION>14.34831254</MEAN_MOTION><ECCENTRICITY>.0007152</ECCENTRICITY><INCLINATION>86.3947</INCLINATION><RA_OF_ASC_NODE>176.6152</RA_OF_ASC_NODE><ARG_OF_PERICENTER>355.3638</ARG_OF_PERICENTER><MEAN_ANOMALY>4.7490</MEAN_ANOMALY></meanElements><tleParameters><EPHEMERIS_TYPE>0</EPHEMERIS_TYPE><CLASSIFICATION_TYPE>U</CLASSIFICATION_TYPE><NORAD_CAT_ID>24946</NORAD_CAT_ID><ELEMENT_SET_NO>999</ELEMENT_SET_NO><REV_AT_EPOCH>44129</REV_AT_EPOCH><BSTAR>.23281E-3</BSTAR><MEAN_MOTION_DOT>.68E-5</MEAN_MOTION_DOT><MEAN_MOTION_DDOT>0</MEAN_MOTION_DDOT></tleParameters></data></segment></body></omm>
<omm id="CCSDS_OMM_VERS" version="2.0">
<header><CREATION_DATE/><ORIGINATOR/></header><body><segment><metadata><OBJECT_NAME>IRIDIUM 28</OBJECT_NAME><OBJECT_ID>1997-051E</OBJECT_ID><CENTER_NAME>EARTH</CENTER_NAME><REF_FRAME>TEME</REF_FRAME><TIME_SYSTEM>UTC</TIME_SYSTEM><MEAN_ELEMENT_THEORY>SGP4</MEAN_ELEMENT_THEORY></metadata><data><meanElements><EPOCH>2025-03-29T07:58:30.617184</EPOCH><MEAN_MOTION>14.37307021</MEAN_MOTION><ECCENTRICITY>.0002124</ECCENTRICITY><INCLINATION>86.4034</INCLINATION><RA_OF_ASC_NODE>174.9291</RA_OF_ASC_NODE><ARG_OF_PERICENTER>83.4202</ARG_OF_PERICENTER><MEAN_ANOMALY>276.7238</MEAN_ANOMALY></meanElements><tleParameters><EPHEMERIS_TYPE>0</EPHEMERIS_TYPE><CLASSIFICATION_TYPE>U</CLASSIFICATION_TYPE><NORAD_CAT_ID>24948</NORAD_CAT_ID><ELEMENT_SET_NO>999</ELEMENT_SET_NO><REV_AT_EPOCH>44237</REV_AT_EPOCH><BSTAR>.31315E-3</BSTAR><MEAN_MOTION_DOT>.953E-5</MEAN_MOTION_DOT><MEAN_MOTION_DDOT>0</MEAN_MOTION_DDOT></tleParameters></data></segment></body></omm>
<omm id="CCSDS_OMM_VERS" version="2.0">
<header><CREATION_DATE/><ORIGINATOR/></header><body><segment><metadata><OBJECT_NAME>IRIDIUM 36</OBJECT_NAME><OBJECT_ID>1997-056C</OBJECT_ID><CENTER_NAME>EARTH</CENTER_NAME><REF_FRAME>TEME</REF_FRAME><TIME_SYSTEM>UTC</TIME_SYSTEM><MEAN_ELEMENT_THEORY>SGP4</MEAN_ELEMENT_THEORY></metadata><data><meanElements><EPOCH>2025-03-29T09:03:25.555104</EPOCH><MEAN_MOTION>14.37514700</MEAN_MOTION><ECCENTRICITY>.0001876</ECCENTRICITY><INCLINATION>86.4021</INCLINATION><RA_OF_ASC_NODE>206.4821</RA_OF_ASC_NODE><ARG_OF_PERICENTER>93.6854</ARG_OF_PERICENTER><MEAN_ANOMALY>266.4558</MEAN_ANOMALY></meanElements><tleParameters><EPHEMERIS_TYPE>0</EPHEMERIS_TYPE><CLASSIFICATION_TYPE>U</CLASSIFICATION_TYPE><NORAD_CAT_ID>24967</NORAD_CAT_ID><ELEMENT_SET_NO>999</ELEMENT_SET_NO><REV_AT_EPOCH>44075</REV_AT_EPOCH><BSTAR>.39112E-3</BSTAR><MEAN_MOTION_DOT>.119E-4</MEAN_MOTION_DOT><MEAN_MOTION_DDOT>0</MEAN_MOTION_DDOT></tleParameters></data></segment></body></omm>

</ndm>
