24903,IRIDIUM 26,1997,100.2,-1.0,-,86.4,Inactive,0,LEO,USA,USA,Unknown,Unknown,Unknown,1 24903U 97043A   25088.39204665  .00000899  00000+0  29659-3 0  9998,2 24903  86.3979 144.1433 0002282  88.2420 271.9039 14.37058205445289,14.37058205,0.0002282,LEO
24907,IRIDIUM 22,1997,100.29,-1.0,-,86.4,Inactive,0,LEO,USA,USA,Unknown,Unknown,Unknown,1 24907U 97043E   25088.25624278  .00000817  00000+0  27535-3 0  9994,2 24907  86.3990 147.6669 0002246  94.0500 266.0954 14.35881883445307,14.35881883,0.0002246,LEO
24925,DUMMY MASS 1,1997,96.85,-1.0,-,86.34,Inactive,0,LEO,PRC,China,Unknown,Unknown,Unknown,1 24925U 97048A   25088.26725095  .00001059  00000+0  11539-3 0  9995,2 24925  86.3410 172.2607 0008931  75.6501 284.5715 14.86896040493257,14.8689604,0.0008931,LEO
24926,DUMMY MASS 2,1997,96.86,-1.0,-,86.34,Inactive,0,LEO,PRC,China,Unknown,Unknown,Unknown,1 24926U 97048B   25088.28342071  .00001058  00000+0  11604-3 0  9999,2 24926  86.3412 173.8437 0009822  83.9203 276.3140 14.86648933493032,14.86648933,0.0009822,LEO
24944,IRIDIUM 29,1997,100.25,-1.0,-,86.4,Inactive,0,LEO,Kazakhstan,USA,Unknown,Unknown,Unknown,1 24944U 97051A   25088.30720383  .00000975  00000+0  32654-3 0  9997,2 24944  86.4029 177.3751 0002242 100.5336 259.6114 14.36376987441802,14.36376987,0.0002242,LEO
24946,IRIDIUM 33,1997,100.36,-1.0,-,86.39,Inactive,0,LEO,Kazakhstan,USA,Unknown,Unknown,Unknown,1 24946U 97051C   25088.34151032  .00000680  00000+0  23281-3 0  9991,2 24946  86.3947 176.6152 0007152 355.3638   4.7490 14.34831254441299,14.34831254,0.0007152,LEO
24948,IRIDIUM 28,1997,100.19,-1.0,-,86.4,Inactive,0,LEO,Kazakhstan,USA,Unknown,Unknown,Unknown,1 24948U 97051E   25088.33229881  .00000953  00000+0  31315-3 0  9990,2 24948  86.4034 174.9291 0002124  83.4202 276.7238 14.37307021442378,14.37307021,0.0002124,LEO
24967,IRIDIUM 36,1997,100.17,-1.0,-,86.4,Inactive,0,LEO,USA,USA,Unknown,Unknown,Unknown,1 24967U 97056C   25088.37737911  .00001190  00000+0  39112-3 0  9995,2 24967  86.4021 206.4821 0001876  93.6854 266.4558 14.37514700440759,14.375147,0.0001876,LEO
